{
    "satellites": [
        {
            "name": "starlink352",
            "title": "Starlink-352 (G17-13) (new)",
            "tle": [
                "1 71702C 26032X   26048.10048611  .00023668  00000+0  24887-4 0   483",
                "2 71702  97.2851 233.2442 0000868 281.3350   5.6845 16.10367367    14"
            ],
            "stdMag": 5,
            "noradId": "71702",
            "tleUrl": "http://celestrak.org/NORAD/elements/supplemental/sup-gp.php?FILE=starlink&FORMAT=tle",
            "launchDate": "2026-02-15T01:59:59.000Z",
            "active": true,
            "batch": [
                {
                    "noradId": "71702",
                    "tle": [
                        "1 71702C 26032X   26048.10048611  .00023668  00000+0  24887-4 0   483",
                        "2 71702  97.2851 233.2442 0000868 281.3350   5.6845 16.10367367    14"
                    ]
                },
                {
                    "noradId": "71704",
                    "tle": [
                        "1 71704C 26032Z   26048.10395833 -.00073999  00000+0 -78981-4 0   484",
                        "2 71704  97.2852 233.2478 0000466 296.5941  10.2487 16.10239385    16"
                    ]
                },
                {
                    "noradId": "71701",
                    "tle": [
                        "1 71701C 26032W   26048.10256944 -.00054402  00000+0 -57688-4 0   489",
                        "2 71701  97.2851 233.2464 0000569 293.2772   5.6854 16.10318966    16"
                    ]
                },
                {
                    "noradId": "71703",
                    "tle": [
                        "1 71703C 26032Y   26048.10256944 -.00098258  00000+0 -10560-3 0   485",
                        "2 71703  97.2852 233.2463 0000492 310.6721 347.9726 16.10158835    18"
                    ]
                },
                {
                    "noradId": "71700",
                    "tle": [
                        "1 71700C 26032V   26048.10118056 -.00151410  00000+0 -16397-3 0   487",
                        "2 71700  97.2851 233.2445 0000363 323.9790 326.4871 16.10095699    15"
                    ]
                },
                {
                    "noradId": "71698",
                    "tle": [
                        "1 71698C 26032T   26048.10118056 -.00269100  00000+0 -29957-3 0   485",
                        "2 71698  97.2852 233.2444 0000577  24.8324 265.0279 16.09791462    17"
                    ]
                },
                {
                    "noradId": "71699",
                    "tle": [
                        "1 71699C 26032U   26048.09493056 -.00194610  00000+0 -21234-3 0   483",
                        "2 71699  97.2852 233.2378 0000189 270.6341 343.5051 16.10024964    11"
                    ]
                },
                {
                    "noradId": "71696",
                    "tle": [
                        "1 71696C 26032R   26048.10256944 -.00249240  00000+0 -27397-3 0   481",
                        "2 71696  97.2854 233.2464 0000558  20.3494 277.8817 16.09966532    18"
                    ]
                },
                {
                    "noradId": "71695",
                    "tle": [
                        "1 71695C 26032Q   26048.10256944 -.00318650  00000+0 -35739-3 0   481",
                        "2 71695  97.2853 233.2460 0000932  45.6635 252.1024 16.09726111    18"
                    ]
                },
                {
                    "noradId": "71697",
                    "tle": [
                        "1 71697C 26032S   26048.09493056 -.00253110  00000+0 -27991-3 0   488",
                        "2 71697  97.2852 233.2375 0000658  47.8603 205.9712 16.09876959    14"
                    ]
                },
                {
                    "noradId": "71693",
                    "tle": [
                        "1 71693C 26032N   26048.09493056 -.00373810  00000+0 -42479-3 0   482",
                        "2 71693  97.2855 233.2376 0000706  61.8741 191.3498 16.09579519    18"
                    ]
                },
                {
                    "noradId": "71692",
                    "tle": [
                        "1 71692C 26032M   26048.09423611 -.00416660  00000+0 -47669-3 0   488",
                        "2 71692  97.2855 233.2369 0000807  63.2977 185.7480 16.09518575    11"
                    ]
                },
                {
                    "noradId": "71691",
                    "tle": [
                        "1 71691C 26032L   26048.10326389 -.00475840  00000+0 -54851-3 0   489",
                        "2 71691  97.2856 233.2466 0000954  61.1049 240.0526 16.09462264    18"
                    ]
                },
                {
                    "noradId": "71694",
                    "tle": [
                        "1 71694C 26032P   26048.10048611 -.00363070  00000+0 -41018-3 0   483",
                        "2 71694  97.2854 233.2437 0000793  47.6858 237.8773 16.09659351    18"
                    ]
                },
                {
                    "noradId": "71690",
                    "tle": [
                        "1 71690C 26032K   26048.10326389 -.00495000  00000+0 -57427-3 0   480",
                        "2 71690  97.2856 233.2466 0001133  52.3185 248.6774 16.09381189    15"
                    ]
                },
                {
                    "noradId": "71689",
                    "tle": [
                        "1 71689C 26032J   26048.09423611 -.00534740  00000+0 -62437-3 0   484",
                        "2 71689  97.2857 233.2366 0001085  59.4468 189.1362 16.09322279    18"
                    ]
                },
                {
                    "noradId": "71685",
                    "tle": [
                        "1 71685C 26032E   26048.09562500 -.00611310  00000+0 -73160-3 0   485",
                        "2 71685  97.2858 233.2380 0001045  75.9984 179.9188 16.09013964    14"
                    ]
                },
                {
                    "noradId": "71686",
                    "tle": [
                        "1 71686C 26032F   26048.10048611 -.00567770  00000+0 -67120-3 0   489",
                        "2 71686  97.2858 233.2434 0000967  70.4106 213.9727 16.09162151    14"
                    ]
                },
                {
                    "noradId": "71687",
                    "tle": [
                        "1 71687C 26032G   26048.09979167 -.00587780  00000+0 -69915-3 0   484",
                        "2 71687  97.2858 233.2426 0001115  66.2363 213.9590 16.09085695    15"
                    ]
                },
                {
                    "noradId": "71683",
                    "tle": [
                        "1 71683C 26032C   26048.09840278 -.00658700  00000+0 -79811-3 0   487",
                        "2 71683  97.2859 233.2410 0001224  70.0050 201.6397 16.08868007    16"
                    ]
                },
                {
                    "noradId": "71684",
                    "tle": [
                        "1 71684C 26032D   26048.09631944 -.00644920  00000+0 -77639-3 0   481",
                        "2 71684  97.2860 233.2389 0001033  75.7120 184.0335 16.08956023    14"
                    ]
                },
                {
                    "noradId": "71688",
                    "tle": [
                        "1 71688C 26032H   26048.10118056 -.00539250  00000+0 -63394-3 0   483",
                        "2 71688  97.2857 233.2441 0001034  64.0880 224.5162 16.09220014    11"
                    ]
                },
                {
                    "noradId": "71681",
                    "tle": [
                        "1 71681C 26032A   26048.09701389 -.00745190  00000+0 -91509-3 0   482",
                        "2 71681  97.2861 233.2393 0001396  72.9371 190.3607 16.08745618    14"
                    ]
                },
                {
                    "noradId": "71682",
                    "tle": [
                        "1 71682C 26032B   26048.09631944 -.00699210  00000+0 -85317-3 0   483",
                        "2 71682  97.2859 233.2386 0001342  72.6962 186.7582 16.08798783    10"
                    ]
                }
            ]
        }
    ],
    "config": {}
}